[{"OBJECT_NAME":"ONEWEB-0475","OBJECT_ID":"2022-012AK","EPOCH":"2022-08-18T22:00:00.999936","MEAN_MOTION":14.94017732,"ECCENTRICITY":0.0003415,"INCLINATION":87.1896,"RA_OF_ASC_NODE":294.1295,"ARG_OF_PERICENTER":117.9817,"MEAN_ANOMALY":35.0723,"EPHEMERIS_TYPE":0,"CLASSIFICATION_TYPE":"U","NORAD_CAT_ID":51655,"ELEMENT_SET_NO":999,"REV_AT_EPOCH":2961,"BSTAR":-0.0011439,"MEAN_MOTION_DOT":-0.00012129,"MEAN_MOTION_DDOT":0}]