ONEWEB-0475             
1 51655U 22012AK  22230.91667824 -.00012129  00000+0 -11439-2 0  9997
2 51655  87.1896 294.1295 0003415 117.9817  35.0723 14.94017732 29618
